STARLINK-31231          
1 59034U 24038M   26068.26950667 -.00000305  00000+0 -15589-5 0  9993
2 59034  43.0047  25.9678 0001200 275.6267  84.4448 15.27574784114622
LYNK TOWER 6            
1 59123U 24043AB  26068.89488777  .00011440  00000+0  40142-3 0  9996
2 59123  97.5426 204.1954 0009749 232.0253 128.0107 15.29548678111845
